{"spkid": "54538372", "covariance": {"labels": ["e", "q", "tp", "node", "peri", "i"], "data": [["1.258090068330766E-13", "-1.263279919494488E-13", "-7.566731446777083E-12", "-2.859961913742837E-13", "8.073997053051092E-12", "7.979844992132002E-12"], ["-1.263279919494488E-13", "1.268673553227033E-13", "7.575611388261662E-12", "2.87177708229124E-13", "-8.11125855902368E-12", "-8.014627827326213E-12"], ["-7.566731446777083E-12", "7.575611388261662E-12", "4.836420031785213E-10", "1.72385955176738E-11", "-4.794375008055887E-10", "-4.730312923409364E-10"], ["-2.859961913742837E-13", "2.87177708229124E-13", "1.72385955176738E-11", "1.322640703458207E-12", "-1.867220341978367E-11", "-2.632195734988181E-11"], ["8.073997053051092E-12", "-8.11125855902368E-12", "-4.794375008055887E-10", "-1.867220341978367E-11", "5.207380955136842E-10", "5.240135962951246E-10"], ["7.979844992132002E-12", "-8.014627827326213E-12", "-4.730312923409364E-10", "-2.632195734988181E-11", "5.240135962951246E-10", "7.993247805158784E-10"]], "elements": [{"units": null, "value": ".5287277072397546", "title": "eccentricity", "sigma": 3.54695653811936e-07, "name": "e", "label": "e"}, {"name": "q", "sigma": 3.56184440034518e-07, "value": ".4720926235865079", "title": "perihelion distance", "units": "au", "label": "q"}, {"label": "tp", "sigma": 2.19918622035179e-05, "name": "tp", "units": "TDB", "value": "2460581.237359999301", "title": "time of perihelion passage"}, {"label": "node", "sigma": 1.15006117378955e-06, "name": "om", "title": "longitude of the ascending node", "value": "125.7805633647048", "units": "deg"}, {"value": "302.7118449254131", "title": "argument of perihelion", "units": "deg", "sigma": 2.28196865779021e-05, "name": "w", "label": "peri"}, {"label": "i", "sigma": 2.82723324208647e-05, "name": "i", "units": "deg", "title": "inclination", "value": "29.23434563610622"}], "epoch": "2460703.5"}, "elements": [{"label": "e", "value": ".527389164928369", "title": "eccentricity", "units": null, "sigma": "3.5778E-7", "name": "e"}, {"label": "a", "title": "semi-major axis", "value": "1.004413732511699", "units": "au", "sigma": "1.3409E-8", "name": "a"}, {"label": "q", "units": "au", "title": "perihelion distance", "value": ".474696812879768", "name": "q", "sigma": "3.6278E-7"}, {"label": "i", "title": "inclination; angle with respect to x-y ecliptic plane", "value": "29.27782419736608", "units": "deg", "sigma": "2.8101E-5", "name": "i"}, {"name": "om", "sigma": "1.1409E-6", "units": "deg", "title": "longitude of the ascending node", "value": "125.7724017262057", "label": "node"}, {"units": "deg", "value": "302.3965770179016", "title": "argument of perihelion", "sigma": "2.3695E-5", "name": "w", "label": "peri"}, {"title": "mean anomaly", "value": "247.7447960575248", "units": "deg", "sigma": "2.4895E-5", "name": "ma", "label": "M"}, {"label": "tp", "name": "tp", "sigma": "2.7039E-5", "title": "time of perihelion passage", "value": "2461315.149290658961", "units": "TDB"}, {"label": "period", "value": "367.6777840818543", "title": "sidereal orbital period", "units": "d", "sigma": "7.3629E-6", "name": "per"}, {"sigma": "1.9607E-8", "name": "n", "units": "deg/d", "title": "mean motion", "value": ".9791181724481208", "label": "n"}, {"sigma": "2.0481E-8", "name": "ad", "title": "aphelion distance", "value": "1.534130652143631", "units": "au", "label": "Q"}], "epoch": "2461200.5"}